{
"type": "FeatureCollection",
"name": "IRA",
"crs": { "type": "name", "properties": { "name": "urn:ogc:def:crs:OGC:1.3:CRS84" } },
"features": [
{ "type": "Feature", "properties": { "name": "IRA", "level": "0" }, "geometry": { "type": "MultiPolygon", "coordinates": [ [ [ [ 0.16454558700019, 48.015960530307026 ], [ 0.164537833768375, 48.016172520680072 ], [ 0.164111406018543, 48.016167334381663 ], [ 0.164111406018543, 48.016142051169403 ], [ 0.164065855781629, 48.016142051169403 ], [ 0.164063917473675, 48.016187431285125 ], [ 0.163992200079385, 48.01618937614635 ], [ 0.163991230925409, 48.016209473041222 ], [ 0.163747004123232, 48.016210121328022 ], [ 0.163749911585163, 48.01608953984276 ], [ 0.164062948319698, 48.016094726148992 ], [ 0.16406876324356, 48.016077870651806 ], [ 0.164133696560011, 48.016076574074866 ], [ 0.164130789098081, 48.016018228078998 ], [ 0.164218012956001, 48.015994889662146 ], [ 0.164346910434927, 48.015971551234749 ], [ 0.1644612706042, 48.015959882017093 ], [ 0.16454558700019, 48.015960530307026 ] ] ] ] } }
]
}
