{
    "type": "FeatureCollection",
    "generator": "JOSM",
    "features": [
        {
            "type": "Feature",
            "properties": {
                "name": "Acceuil",
                "level": "0"
            },
            "geometry": {
                "type": "LineString",
                "coordinates": [
                    [
                        0.15473101336,
                        48.01885339423
                    ],
                    [
                        0.15470033954,
                        48.01887857454
                    ],
                    [
                        0.15468416607,
                        48.01889051186
                    ],
                    [
                        0.15468250483,
                        48.01889241909
                    ]
                ]
            }
        },
        {
            "type": "Feature",
            "properties": {
                "name": "Bartholdi"
            },
            "geometry": {
                "type": "Point",
                "coordinates": [
                    0.15415657554,
                    48.01860569456
                ]
            }
        },
        {
            "type": "Feature",
            "properties": {
                "level": "0"
            },
            "geometry": {
                "type": "LineString",
                "coordinates": [
                    [
                        0.15434173387,
                        48.01885787129
                    ],
                    [
                        0.15440308151,
                        48.01886757037
                    ],
                    [
                        0.15453804631,
                        48.01881609062
                    ],
                    [
                        0.15460608642,
                        48.01883921921
                    ],
                    [
                        0.15466185700,
                        48.01887652337
                    ],
                    [
                        0.15468250483,
                        48.01889241909
                    ],
                    [
                        0.15472097382,
                        48.01892203441
                    ],
                    [
                        0.15542591451,
                        48.01944428897
                    ],
                    [
                        0.15546328080,
                        48.01942451798
                    ],
                    [
                        0.15564955454,
                        48.01955806523
                    ]
                ]
            }
        },
        {
            "type": "Feature",
            "properties": {
                "level": "Acceuil"
            },
            "geometry": {
                "type": "Point",
                "coordinates": [
                    0.15473101336,
                    48.01885339423
                ]
            }
        },
        {
            "type": "Feature",
            "properties": {
                "name": "Parc"
            },
            "geometry": {
                "type": "Point",
                "coordinates": [
                    0.15269092135,
                    48.01991282436
                ]
            }
        },
        {
            "type": "Feature",
            "properties": {
                "level": "0"
            },
            "geometry": {
                "type": "LineString",
                "coordinates": [
                    [
                        0.15269092135,
                        48.01991282436
                    ],
                    [
                        0.15296754342,
                        48.01976361056
                    ],
                    [
                        0.15392233576,
                        48.01911303335
                    ],
                    [
                        0.15412311320,
                        48.01905259864
                    ],
                    [
                        0.15427927082,
                        48.01898172095
                    ],
                    [
                        0.15432946434,
                        48.01892128832
                    ],
                    [
                        0.15434173387,
                        48.01885787129
                    ],
                    [
                        0.15417776836,
                        48.01876535689
                    ],
                    [
                        0.15414765225,
                        48.01869746316
                    ],
                    [
                        0.15415657554,
                        48.01860569456
                    ],
                    [
                        0.15416438343,
                        48.01844677782
                    ],
                    [
                        0.15409522791,
                        48.01844379346
                    ],
                    [
                        0.15398814839,
                        48.01840275854
                    ],
                    [
                        0.15380299006,
                        48.01824906382
                    ],
                    [
                        0.15365464032,
                        48.01812595849
                    ],
                    [
                        0.15359663892,
                        48.01799464582
                    ],
                    [
                        0.15323189932,
                        48.01782155133
                    ],
                    [
                        0.15313151228,
                        48.01777678542
                    ],
                    [
                        0.15312593522,
                        48.01751863458
                    ],
                    [
                        0.15298427794,
                        48.01744103986
                    ],
                    [
                        0.15276454186,
                        48.01747983724
                    ],
                    [
                        0.15269092469,
                        48.01744551648
                    ],
                    [
                        0.15261953835,
                        48.01719184063
                    ],
                    [
                        0.15240203309,
                        48.01726048245
                    ],
                    [
                        0.15227822240,
                        48.01731494818
                    ],
                    [
                        0.15226706828,
                        48.01733210861
                    ]
                ]
            }
        },
        {
            "type": "Feature",
            "properties": {
                "name": "Carrefour"
            },
            "geometry": {
                "type": "Point",
                "coordinates": [
                    0.15226706828,
                    48.01733210861
                ]
            }
        },
        {
            "type": "Feature",
            "properties": {
                "name": "ESGT"
            },
            "geometry": {
                "type": "Point",
                "coordinates": [
                    0.15466185700,
                    48.01887652337
                ]
            }
        },
        {
            "type": "Feature",
            "properties": {
                "name": "Foyer"
            },
            "geometry": {
                "type": "Point",
                "coordinates": [
                    0.15564955454,
                    48.01955806523
                ]
            }
        }
    ]
}