{
    "type": "FeatureCollection",
    "features": [
        {
            "type": "Feature",
            "geometry": {
                "type": "Point",
                "coordinates": [
                    2.3522,
                    48.8566
                ]
            },
            "properties": {
                "id": "A",
                "level": 1
            }
        },
        {
            "type": "Feature",
            "geometry": {
                "type": "Point",
                "coordinates": [
                    2.3526,
                    48.8566
                ]
            },
            "properties": {
                "id": "B",
                "level": 1
            }
        },
        {
            "type": "Feature",
            "geometry": {
                "type": "Point",
                "coordinates": [
                    2.3530,
                    48.8566
                ]
            },
            "properties": {
                "id": "C",
                "level": 3
            }
        },
        {
            "type": "Feature",
            "geometry": {
                "type": "Point",
                "coordinates": [
                    2.3534,
                    48.8566
                ]
            },
            "properties": {
                "id": "D",
                "level": 3
            }
        },
        {
            "type": "Feature",
            "geometry": {
                "type": "LineString",
                "coordinates": [
                    [
                        2.3522,
                        48.8566
                    ],
                    [
                        2.3526,
                        48.8566
                    ]
                ]
            },
            "properties": {
                "weight": 1,
                "level": 3
            }
        },
        {
            "type": "Feature",
            "geometry": {
                "type": "LineString",
                "coordinates": [
                    [
                        2.3526,
                        48.8566
                    ],
                    [
                        2.3530,
                        48.8566
                    ]
                ]
            },
            "properties": {
                "level": 3,
                "weight": 1
            }
        },
        {
            "type": "Feature",
            "geometry": {
                "type": "LineString",
                "coordinates": [
                    [
                        2.3530,
                        48.8566
                    ],
                    [
                        2.3534,
                        48.8566
                    ]
                ]
            },
            "properties": {
                "level": 1,
                "weight": 1
            }
        },
        {
            "type": "Feature",
            "geometry": {
                "type": "LineString",
                "coordinates": [
                    [
                        2.3522,
                        48.8566
                    ],
                    [
                        2.3530,
                        48.8566
                    ]
                ]
            },
            "properties": {
                "level": 3,
                "weight": 1
            }
        }
    ]
}