{
    "type": "FeatureCollection",
    "generator": "JOSM",
    "features": [
        {
            "type": "Feature",
            "properties": {
                "level": "3",
                "height": "120",
                "name": "A",
                "color": "#0066cc"
            },
            "geometry": {
                "type": "LineString",
                "coordinates": [
                    [
                        2.34900000000,
                        48.85750000000
                    ],
                    [
                        2.35150000000,
                        48.85750000000
                    ],
                    [
                        2.35150000000,
                        48.85550000000
                    ],
                    [
                        2.34900000000,
                        48.85550000000
                    ],
                    [
                        2.34900000000,
                        48.85750000000
                    ]
                ]
            }
        },
        {
            "type": "Feature",
            "properties": {
                "name": "D",
                "color": "#00cc66",
                "height": "60",
                "level": "1"
            },
            "geometry": {
                "type": "LineString",
                "coordinates": [
                    [
                        2.35550000000,
                        48.85700000000
                    ],
                    [
                        2.35750000000,
                        48.85700000000
                    ],
                    [
                        2.35750000000,
                        48.85500000000
                    ],
                    [
                        2.35550000000,
                        48.85500000000
                    ],
                    [
                        2.35550000000,
                        48.85700000000
                    ]
                ]
            }
        }
    ]
}