{
    "type": "FeatureCollection",
    "features": [
        {
            "type": "Feature",
            "properties": {
                "name": "Salle ESGT",
                "level": 3
            },
            "geometry": {
                "coordinates": [
                    [
                        [
                            2.351780331299352,
                            48.85624320301329
                        ],
                        [
                            2.351780331299352,
                            48.85568893431446
                        ],
                        [
                            2.352817614867348,
                            48.85568893431446
                        ],
                        [
                            2.352817614867348,
                            48.85624320301329
                        ],
                        [
                            2.351780331299352,
                            48.85624320301329
                        ]
                    ]
                ],
                "type": "Polygon"
            },
            "id": 0
        },
        {
            "type": "Feature",
            "properties": {
                "name": "Salle B",
                "level": 1
            },
            "geometry": {
                "type": "Polygon",
                "coordinates": [
                    [
                        [
                            2.350168029507927,
                            48.857574135245954
                        ],
                        [
                            2.350090915220406,
                            48.85757164271835
                        ],
                        [
                            2.3500145436084834,
                            48.857564189140696
                        ],
                        [
                            2.349939650194506,
                            48.857551846297206
                        ],
                        [
                            2.3498669562632446,
                            48.85753473305978
                        ],
                        [
                            2.349797161914748,
                            48.857513014243025
                        ],
                        [
                            2.3497309393213137,
                            48.85748689901686
                        ],
                        [
                            2.3496689262535426,
                            48.857456638891875
                        ],
                        [
                            2.349611719937843,
                            48.85742252529681
                        ],
                        [
                            2.349559871304557,
                            48.85738488677179
                        ],
                        [
                            2.349513879682117,
                            48.857344085803874
                        ],
                        [
                            2.3494741879883194,
                            48.85730051533594
                        ],
                        [
                            2.3494411784650486,
                            48.85725459498206
                        ],
                        [
                            2.3494151689974894,
                            48.857206766986174
                        ],
                        [
                            2.3493964100532807,
                            48.85715749196285
                        ],
                        [
                            2.349385082271057,
                            48.85710724446104
                        ],
                        [
                            2.349381294721577,
                            48.857056508393846
                        ],
                        [
                            2.3493850838581607,
                            48.85700577237808
                        ],
                        [
                            2.3493964131664975,
                            48.85695552502856
                        ],
                        [
                            2.3494151735171798,
                            48.85690625025255
                        ],
                        [
                            2.349441184217523,
                            48.85685842258949
                        ],
                        [
                            2.3494741947525135,
                            48.85681250264115
                        ],
                        [
                            2.3495138871980865,
                            48.85676893263591
                        ],
                        [
                            2.3495598792834684,
                            48.85672813217003
                        ],
                        [
                            2.3496117280730706,
                            48.856690494167125
                        ],
                        [
                            2.349668934232454,
                            48.856656381094176
                        ],
                        [
                            2.349730946837284,
                            48.85662612147122
                        ],
                        [
                            2.3497971686789425,
                            48.85660000670775
                        ],
                        [
                            2.349866962015719,
                            48.856578288296554
                        ],
                        [
                            2.349939654714196,
                            48.856561175391946
                        ],
                        [
                            2.3500145467216997,
                            48.85654883279577
                        ],
                        [
                            2.3500909168075106,
                            48.8565413793704
                        ],
                        [
                            2.350168029507927,
                            48.85653888689423
                        ],
                        [
                            2.3502451422083435,
                            48.8565413793704
                        ],
                        [
                            2.350321512294154,
                            48.85654883279577
                        ],
                        [
                            2.350396404301658,
                            48.856561175391946
                        ],
                        [
                            2.3504690970001345,
                            48.856578288296554
                        ],
                        [
                            2.3505388903369115,
                            48.85660000670775
                        ],
                        [
                            2.35060511217857,
                            48.85662612147122
                        ],
                        [
                            2.3506671247834,
                            48.856656381094176
                        ],
                        [
                            2.3507243309427834,
                            48.856690494167125
                        ],
                        [
                            2.350776179732385,
                            48.85672813217003
                        ],
                        [
                            2.350822171817767,
                            48.85676893263591
                        ],
                        [
                            2.35086186426334,
                            48.85681250264115
                        ],
                        [
                            2.350894874798331,
                            48.85685842258949
                        ],
                        [
                            2.3509208854986743,
                            48.85690625025255
                        ],
                        [
                            2.350939645849356,
                            48.85695552502856
                        ],
                        [
                            2.3509509751576934,
                            48.85700577237808
                        ],
                        [
                            2.3509547642942765,
                            48.857056508393846
                        ],
                        [
                            2.350950976744797,
                            48.85710724446104
                        ],
                        [
                            2.350939648962573,
                            48.85715749196285
                        ],
                        [
                            2.3509208900183642,
                            48.857206766986174
                        ],
                        [
                            2.350894880550805,
                            48.85725459498206
                        ],
                        [
                            2.3508618710275346,
                            48.85730051533594
                        ],
                        [
                            2.350822179333737,
                            48.857344085803874
                        ],
                        [
                            2.3507761877112965,
                            48.85738488677179
                        ],
                        [
                            2.350724339078011,
                            48.85742252529681
                        ],
                        [
                            2.350667132762311,
                            48.857456638891875
                        ],
                        [
                            2.35060511969454,
                            48.85748689901686
                        ],
                        [
                            2.350538897101106,
                            48.857513014243025
                        ],
                        [
                            2.350469102752609,
                            48.85753473305978
                        ],
                        [
                            2.350396408821348,
                            48.857551846297206
                        ],
                        [
                            2.3503215154073707,
                            48.857564189140696
                        ],
                        [
                            2.3502451437954477,
                            48.85757164271835
                        ],
                        [
                            2.350168029507927,
                            48.857574135245954
                        ]
                    ]
                ]
            },
            "id": 1
        },
        {
            "type": "Feature",
            "properties": {
                "name": "Salle C",
                "level": 2
            },
            "geometry": {
                "coordinates": [
                    [
                        [
                            2.352277522095534,
                            48.856880401841494
                        ],
                        [
                            2.353090948687054,
                            48.856969599705764
                        ],
                        [
                            2.3530544487755947,
                            48.85770376070269
                        ],
                        [
                            2.351917737257196,
                            48.85777923458707
                        ],
                        [
                            2.3521367367240487,
                            48.85748419966367
                        ],
                        [
                            2.3518290946157663,
                            48.85705879741104
                        ],
                        [
                            2.352277522095534,
                            48.856880401841494
                        ]
                    ]
                ],
                "type": "Polygon"
            },
            "id": 2
        }
    ]
}