{
    "type": "FeatureCollection",
    "generator": "JOSM",
    "features": [
        {
            "type": "Feature",
            "properties": {
                "covered": "yes",
                "highway": "steps",
                "level": "3"
            },
            "geometry": {
                "type": "LineString",
                "coordinates": [
                    [
                        2.35681232848,
                        48.85608994176
                    ],
                    [
                        2.35622167422,
                        48.85811341795
                    ],
                    [
                        2.35090578584,
                        48.85891742552
                    ],
                    [
                        2.35011656482,
                        48.85666281158
                    ]
                ]
            }
        },
        {
            "type": "Feature",
            "properties": {
                "level": "1"
            },
            "geometry": {
                "type": "LineString",
                "coordinates": [
                    [
                        2.35681232848,
                        48.85608994176
                    ],
                    [
                        2.35188342049,
                        48.85421379804
                    ],
                    [
                        2.35011656482,
                        48.85666281158
                    ]
                ]
            }
        },
        {
            "type": "Feature",
            "properties": {
                "highway": "steps",
                "level": "1"
            },
            "geometry": {
                "type": "LineString",
                "coordinates": [
                    [
                        2.35011656482,
                        48.85666281158
                    ],
                    [
                        2.35681232848,
                        48.85608994176
                    ]
                ]
            }
        },
        {
            "type": "Feature",
            "properties": {
                "covered": "yes",
                "level": "3"
            },
            "geometry": {
                "type": "LineString",
                "coordinates": [
                    [
                        2.35011656482,
                        48.85666281158
                    ],
                    [
                        2.34943933388,
                        48.85267262739
                    ],
                    [
                        2.35198525743,
                        48.84956333871
                    ],
                    [
                        2.35526440696,
                        48.85135924452
                    ],
                    [
                        2.35577359167,
                        48.85342311641
                    ],
                    [
                        2.36019331495,
                        48.85426740312
                    ],
                    [
                        2.35681232848,
                        48.85608994176
                    ]
                ]
            }
        },
        {
            "type": "Feature",
            "properties": {
                "name": "D"
            },
            "geometry": {
                "type": "Point",
                "coordinates": [
                    2.35681232848,
                    48.85608994176
                ]
            }
        },
        {
            "type": "Feature",
            "properties": {
                "name": "A"
            },
            "geometry": {
                "type": "Point",
                "coordinates": [
                    2.35011656482,
                    48.85666281158
                ]
            }
        }
    ]
}